IDEFIX & ARIANE 42P R/B 
1 27422U 02021B   26060.73472942  .00000315  00000+0  13624-3 0  9991
2 27422  98.5862 359.4365 0011120 206.3846 153.6772 14.31019403242887
AQUA                    
1 27424U 02022A   26060.87598086  .00001185  00000+0  24640-3 0  9993
2 27424  98.4160  28.0994 0000713  53.4417 334.8110 14.61953920267595
CZ-4B R/B               
1 27432U 02024C   26060.73613693  .00000047  00000+0  46800-4 0  9990
2 27432  98.8857 114.1823 0050840  46.5747  65.6183 14.14545969228116
MIDORI II (ADEOS-II)    
1 27597U 02056A   26060.82314542  .00000327  00000+0  14655-3 0  9991
2 27597  98.7754  19.2472 0001860  54.3439 305.7915 14.29277780209176
H-2A R/B                
1 27601U 02056E   26060.82068773  .00000303  00000+0  12060-3 0  9991
2 27601  98.3188  21.4865 0070007 184.0894 233.4046 14.33754541212980
CZ-4B R/B               
1 28059U 03049C   26060.54396689  .00000504  00000+0  12731-3 0  9999
2 28059  98.6871  55.1297 0047006 256.3092 103.2868 14.55010732185413
CZ-2C R/B               
1 28222U 04012C   26060.73931489  .00058766  00000+0  63199-3 0  9993
2 28222  97.7255 125.2843 0013561 341.9053  18.1720 15.63451390203033
SL-16 R/B               
1 28353U 04021B   26060.82006439 -.00000066  00000+0 -92989-5 0  9999
2 28353  70.9991 249.0084 0003632  26.0617 334.0687 14.14599764121725
CZ-4B R/B               
1 28415U 04035C   26060.66315205  .00009774  00000+0  34555-3 0  9995
2 28415  97.3514  95.0026 0032008   0.5839 359.5433 15.28890487178685
CZ-2C R/B               
1 28480U 04046B   26060.77248067  .00000145  00000+0  69106-4 0  9996
2 28480  98.1988 336.2487 0139417 177.8033 182.3791 14.26989175107375
ARIANE 5 R/B            
1 28499U 04049H   26060.41369778  .00000941  00000+0  10998-3 0  9991
2 28499  98.2613 228.5617 0084540  18.7373 341.6920 14.85247794144560
CZ-2D R/B               
1 28738U 05024B   26060.56150889  .00045028  00000+0  57095-3 0  9992
2 28738  97.3599  75.4145 0007005  66.5213 293.6779 15.59302460138519
